{
  "norad_id": 58668,
  "name": "STARLINK-31113",
  "history": [
    {
      "epoch": "2026-03-28T10:13:58.229760Z",
      "apogee_km": 484.41712613225354,
      "perigee_km": 481.7213581997057,
      "latitude_deg": -2.7972727357383612e-05,
      "longitude_deg": -0.1747374384136546,
      "height_km": 482.9615587336396,
      "semi_major_axis_km": 6861.206242165979,
      "eccentricity": 0.00019645,
      "inclination_deg": 43.0059,
      "raan_deg": 339.1649,
      "arg_perigee_deg": 265.1257,
      "mean_anomaly_deg": 94.937,
      "mean_motion_rev_day": 15.27573272
    },
    {
      "epoch": "2026-03-28T22:47:12.599232Z",
      "apogee_km": 484.288754290179,
      "perigee_km": 481.7487544299156,
      "latitude_deg": 2.9770342656160947e-05,
      "longitude_deg": 168.0459770145266,
      "height_km": 482.78841250843135,
      "semi_major_axis_km": 6861.1557543600475,
      "eccentricity": 0.0001851,
      "inclination_deg": 43.0046,
      "raan_deg": 336.211,
      "arg_perigee_deg": 270.357,
      "mean_anomaly_deg": 89.707,
      "mean_motion_rev_day": 15.27590133
    },
    {
      "epoch": "2026-03-30T01:27:52.308576Z",
      "apogee_km": 484.3203774196918,
      "perigee_km": 481.7803658547118,
      "latitude_deg": -1.3420452580227259e-05,
      "longitude_deg": 120.50456183376875,
      "height_km": 483.0261819994897,
      "semi_major_axis_km": 6861.187371637202,
      "eccentricity": 0.0001851,
      "inclination_deg": 43.0044,
      "raan_deg": 329.9307,
      "arg_perigee_deg": 261.0169,
      "mean_anomaly_deg": 99.0473,
      "mean_motion_rev_day": 15.27579574
    },
    {
      "epoch": "2026-03-30T01:27:52.309440Z",
      "apogee_km": 484.32044603156646,
      "perigee_km": 481.78029724283897,
      "latitude_deg": -1.2653244780034264e-05,
      "longitude_deg": 120.50455904198319,
      "height_km": 483.02619271219857,
      "semi_major_axis_km": 6861.187371637202,
      "eccentricity": 0.00018511,
      "inclination_deg": 43.0044,
      "raan_deg": 329.9307,
      "arg_perigee_deg": 261.0169,
      "mean_anomaly_deg": 99.0473,
      "mean_motion_rev_day": 15.27579574
    },
    {
      "epoch": "2026-03-30T09:18:39.573792Z",
      "apogee_km": 484.71194400480454,
      "perigee_km": 481.4269355855595,
      "latitude_deg": 5.035501934150076e-06,
      "longitude_deg": 0.641400723701809,
      "height_km": 483.0699711452145,
      "semi_major_axis_km": 6861.206439795182,
      "eccentricity": 0.00023939,
      "inclination_deg": 43.0053,
      "raan_deg": 328.0867,
      "arg_perigee_deg": 262.2135,
      "mean_anomaly_deg": 97.8445,
      "mean_motion_rev_day": 15.27573206
    },
    {
      "epoch": "2026-03-30T21:51:55.016352Z",
      "apogee_km": 484.0460923389883,
      "perigee_km": 482.0890023539032,
      "latitude_deg": -3.969790998599709e-05,
      "longitude_deg": 168.85742327370255,
      "height_km": 482.97024710841566,
      "semi_major_axis_km": 6861.204547346445,
      "eccentricity": 0.00014262,
      "inclination_deg": 43.0023,
      "raan_deg": 325.1327,
      "arg_perigee_deg": 262.6171,
      "mean_anomaly_deg": 97.4518,
      "mean_motion_rev_day": 15.27573838
    }
  ]
}